IRIDIUM 158             
1 43571U 18061C   26058.16858905  .00000233  00000+0  76125-4 0  9991
2 43571  86.3931 102.7812 0002172  89.3360 270.8085 14.34219975397592
IRIDIUM 165             
1 43572U 18061D   26058.19396327 -.00000135  00000+0 -55327-4 0  9994
2 43572  86.3932 102.8142 0002030  98.2105 261.9321 14.34216788397627
IRIDIUM 155             
1 43573U 18061E   26058.15590856 -.00000034  00000+0 -19356-4 0  9994
2 43573  86.3927 102.7046 0001961  92.5929 267.5491 14.34217194397584
IRIDIUM 154             
1 43574U 18061F   26058.20666947  .00000252  00000+0  82816-4 0  9997
2 43574  86.3933 102.8121 0002155  99.1109 261.0331 14.34219173397644
IRIDIUM 163             
1 43575U 18061G   26058.18762154 -.00000015  00000+0 -12453-4 0  9991
2 43575  86.3931 102.7387 0002113  91.7885 268.3552 14.34217368397615
IRIDIUM 156             
1 43576U 18061H   26058.16225072  .00000016  00000+0 -14168-5 0  9999
2 43576  86.3930 102.7563 0001914  93.1846 266.9569 14.34217534397608
IRIDIUM 164             
1 43577U 18061J   26058.21299221 -.00000001  00000+0 -74061-5 0  9996
2 43577  86.3930 102.7735 0002191  98.6070 261.5374 14.34217442397655
IRIDIUM 159             
1 43578U 18061K   26058.18127961 -.00000025  00000+0 -15989-4 0  9993
2 43578  86.3928 102.7261 0002389  93.3493 266.7976 14.34218234397618
BEIDOU-3 M5             
1 43581U 18062A   26057.49413235 -.00000004  00000+0  00000+0 0  9992
2 43581  54.0889 186.0670 0001871 315.2511  44.6939  1.86228511 51577
BEIDOU-3 M6             
1 43582U 18062B   26057.89397010 -.00000011  00000+0  00000+0 0  9997
2 43582  54.0882 186.0426 0006272  44.5159 315.4924  1.86227174 51588
GAOFEN-11 01            
1 43585U 18063A   26058.29473205  .00023709  00000+0  39671-3 0  9995
2 43585  97.1442 125.6757 0004761  38.7246 321.4347 15.51871704423287
TELKOM 4 (MERAH PUTIH)  
1 43587U 18064A   26058.27683767 -.00000358  00000+0  00000+0 0  9998
2 43587   0.0100 195.6642 0001450 168.5175   0.5592  1.00271596 27771
BEIDOU-3 M12            
1 43602U 18067A   26057.29543873 -.00000002  00000+0  00000+0 0  9999
2 43602  54.1835 184.8003 0008636  40.3454 319.6805  1.86227652 51052
BEIDOU-3 M11            
1 43603U 18067B   26056.89320975  .00000005  00000+0  00000+0 0  9993
2 43603  54.1809 184.7778 0005044  35.0448 324.9525  1.86227098 51070
HAIYANG-1C              
1 43609U 18068A   26058.29189066  .00000107  00000+0  53725-4 0  9990
2 43609  98.5297 132.1475 0011870  63.9972 296.2435 14.34140673391333
TELSTAR 18V             
1 43611U 18069A   26058.19223435 -.00000308  00000+0  00000+0 0  9999
2 43611   0.0156 216.4854 0002175 115.6637  32.0511  1.00270111 27524
ICESAT-2                
1 43613U 18070A   26058.21583737  .00003300  00000+0  11989-3 0  9996
2 43613  91.9995 261.3502 0002442 138.0397 222.1040 15.28245010415664
SSTL S1-4               
1 43618U 18071A   26058.27383145  .00001927  00000+0  17562-3 0  9995
2 43618  97.5205 294.3476 0002018 111.5630 248.5807 14.96241412406508
NOVASAR 1               
1 43619U 18071B   26058.24273975  .00000038  00000+0  82292-5 0  9998
2 43619  97.5237 294.9624 0001822  96.5105 263.6324 14.96278859406491
BEIDOU-3 M13            
1 43622U 18072A   26057.38612178  .00000001  00000+0  00000+0 0  9990
2 43622  56.5267  66.3151 0008784 306.1577  53.8015  1.86230947 50599
BEIDOU-3 M14            
1 43623U 18072B   26056.71462269 -.00000001  00000+0  00000+0 0  9992
2 43623  56.5278  66.3314 0006204 327.0296  32.9715  1.86231013 50576
AZERSPACE 2 (IS-38)     
1 43632U 18074A   26058.16850153  .00000000  00000+0  00000+0 0  9996
2 43632   0.0244 133.5442 0001458 201.8546 287.3870  1.00269352 27345
HORIZONS-3E             
1 43633U 18074B   26058.20045008 -.00000045  00000+0  00000+0 0  9997
2 43633   0.0160 249.9974 0000754  60.7849  87.3720  1.00271238 27237
CENTISPACE-1 S1         
1 43636U 18075A   26058.24357414  .00000594  00000+0  13327-3 0  9990
2 43636  97.8850  87.4611 0009981 105.0379 255.1927 14.59865087394516
SAOCOM 1A               
1 43641U 18076A   26058.22887995  .00000656  00000+0  88928-4 0  9996
2 43641  97.8891 246.5488 0001345  81.5465 278.5900 14.82156408399811
YAOGAN-32 A             
1 43642U 18077A   26058.29118530  .00000787  00000+0  16266-3 0  9997
2 43642  98.1618  88.1034 0001632 103.5426 256.5957 14.63013668393777
YAOGAN-32 B             
1 43643U 18077B   26058.29105179  .00000794  00000+0  16411-3 0  9993
2 43643  98.1621  88.0537 0005427 191.2219 168.8863 14.63013450393768
BEIDOU-3 M16            
1 43647U 18078A   26053.11293020 -.00000037  00000+0  00000+0 0  9991
2 43647  54.1936 304.0220 0008366  29.4720 330.6342  1.86232163 50011
BEIDOU-3 M15            
1 43648U 18078B   26052.16831389 -.00000034  00000+0  00000+0 0  9999
2 43648  54.1906 304.0566 0005149  33.6062 326.4889  1.86232341 50011
AEHF-4 (USA 288)        
1 43651U 18079A   26058.16294763 -.00000287  00000+0  00000+0 0  9999
2 43651   1.4236 354.2032 0063993 359.0496 154.8309  1.00274556 27191
HAIYANG-2B              
1 43655U 18081A   26058.26682116  .00000331  00000+0  36524-3 0  9993
2 43655  99.3342  68.6640 0000848 157.6569 202.4620 13.79307323369770
