OBJECT_NAME,OBJECT_ID,EPOCH,MEAN_MOTION,ECCENTRICITY,INCLINATION,RA_OF_ASC_NODE,ARG_OF_PERICENTER,MEAN_ANOMALY,EPHEMERIS_TYPE,CLASSIFICATION_TYPE,NORAD_CAT_ID,ELEMENT_SET_NO,REV_AT_EPOCH,BSTAR,MEAN_MOTION_DOT,MEAN_MOTION_DDOT
IRIDIUM 158,2018-061C,2026-02-27T04:02:46.093920,14.34219975,.00021724,86.3931,102.7812,89.3360,270.8085,0,U,43571,999,39759,.76124666E-4,.233E-5,0
IRIDIUM 165,2018-061D,2026-02-27T04:39:18.426528,14.34216788,.00020303,86.3932,102.8142,98.2105,261.9321,0,U,43572,999,39762,-.5532691E-4,-.135E-5,0
IRIDIUM 155,2018-061E,2026-02-27T03:44:30.499584,14.34217194,.00019614,86.3927,102.7046,92.5929,267.5491,0,U,43573,999,39758,-.19356422E-4,-.34E-6,0
IRIDIUM 154,2018-061F,2026-02-27T04:57:36.242208,14.34219173,.00021559,86.3933,102.8121,99.1109,261.0331,0,U,43574,999,39764,.82816067E-4,.252E-5,0
IRIDIUM 163,2018-061G,2026-02-27T04:30:10.501056,14.34217368,.00021134,86.3931,102.7387,91.7885,268.3552,0,U,43575,999,39761,-.12452517E-4,-.15E-6,0
IRIDIUM 156,2018-061H,2026-02-27T03:53:38.462208,14.34217534,.00019144,86.3930,102.7563,93.1846,266.9569,0,U,43576,999,39760,-.1416824E-5,.16E-6,0
IRIDIUM 164,2018-061J,2026-02-27T05:06:42.526944,14.34217442,.00021914,86.3930,102.7735,98.6070,261.5374,0,U,43577,999,39765,-.7406109E-5,-.1E-7,0
IRIDIUM 159,2018-061K,2026-02-27T04:21:02.558304,14.34218234,.00023897,86.3928,102.7261,93.3493,266.7976,0,U,43578,999,39761,-.15988632E-4,-.25E-6,0
BEIDOU-3 M5,2018-062A,2026-02-26T11:51:33.035040,1.86228511,.0001871,54.0889,186.0670,315.2511,44.6939,0,U,43581,999,5157,0,-.4E-7,0
BEIDOU-3 M6,2018-062B,2026-02-26T21:27:19.016640,1.86227174,.00062728,54.0882,186.0426,44.5159,315.4924,0,U,43582,999,5158,0,-.11E-6,0
GAOFEN-11 01,2018-063A,2026-02-27T07:04:24.849120,15.51871704,.00047612,97.1442,125.6757,38.7246,321.4347,0,U,43585,999,42328,.39671302E-3,.23709E-3,0
TELKOM 4 (MERAH PUTIH),2018-064A,2026-02-27T06:38:38.774688,1.00271596,.00014509,0.0100,195.6642,168.5175,0.5592,0,U,43587,999,2777,0,-.358E-5,0
BEIDOU-3 M12,2018-067A,2026-02-26T07:05:25.906272,1.86227652,.0008636,54.1835,184.8003,40.3454,319.6805,0,U,43602,999,5105,0,-.2E-7,0
BEIDOU-3 M11,2018-067B,2026-02-25T21:26:13.322400,1.86227098,.0005044,54.1809,184.7778,35.0448,324.9525,0,U,43603,999,5107,0,.5E-7,0
HAIYANG-1C,2018-068A,2026-02-27T07:00:19.353024,14.34140673,.00118702,98.5297,132.1475,63.9972,296.2435,0,U,43609,999,39133,.53725147E-4,.107E-5,0
TELSTAR 18V,2018-069A,2026-02-27T04:36:49.047840,1.00270111,.00021755,0.0156,216.4854,115.6637,32.0511,0,U,43611,999,2752,0,-.308E-5,0
ICESAT-2,2018-070A,2026-02-27T05:10:48.348768,15.28245010,.00024425,91.9995,261.3502,138.0397,222.1040,0,U,43613,999,41566,.11989461E-3,.33E-4,0
SSTL S1-4,2018-071A,2026-02-27T06:34:19.037280,14.96241412,.00020181,97.5205,294.3476,111.5630,248.5807,0,U,43618,999,40650,.17562487E-3,.1927E-4,0
NOVASAR 1,2018-071B,2026-02-27T05:49:32.714400,14.96278859,.00018224,97.5237,294.9624,96.5105,263.6324,0,U,43619,999,40649,.8229212E-5,.38E-6,0
BEIDOU-3 M13,2018-072A,2026-02-26T09:16:00.921792,1.86230947,.0008784,56.5267,66.3151,306.1577,53.8015,0,U,43622,999,5059,0,.1E-7,0
BEIDOU-3 M14,2018-072B,2026-02-25T17:09:03.400416,1.86231013,.00062049,56.5278,66.3314,327.0296,32.9715,0,U,43623,999,5057,0,-.1E-7,0
AZERSPACE 2 (IS-38),2018-074A,2026-02-27T04:02:38.532192,1.00269352,.00014581,0.0244,133.5442,201.8546,287.3870,0,U,43632,999,2734,0,0,0
HORIZONS-3E,2018-074B,2026-02-27T04:48:38.886912,1.00271238,.00007546,0.0160,249.9974,60.7849,87.3720,0,U,43633,999,2723,0,-.45E-6,0
CENTISPACE-1 S1,2018-075A,2026-02-27T05:50:44.805696,14.59865087,.00099815,97.8850,87.4611,105.0379,255.1927,0,U,43636,999,39451,.13327037E-3,.594E-5,0
SAOCOM 1A,2018-076A,2026-02-27T05:29:35.227680,14.82156408,.00013454,97.8891,246.5488,81.5465,278.5900,0,U,43641,999,39981,.88927567E-4,.656E-5,0
YAOGAN-32 A,2018-077A,2026-02-27T06:59:18.409920,14.63013668,.0001632,98.1618,88.1034,103.5426,256.5957,0,U,43642,999,39377,.16266178E-3,.787E-5,0
YAOGAN-32 B,2018-077B,2026-02-27T06:59:06.874656,14.63013450,.00054273,98.1621,88.0537,191.2219,168.8863,0,U,43643,999,39376,.16411374E-3,.794E-5,0
BEIDOU-3 M16,2018-078A,2026-02-22T02:42:37.169280,1.86232163,.0008366,54.1936,304.0220,29.4720,330.6342,0,U,43647,999,5001,0,-.37E-6,0
BEIDOU-3 M15,2018-078B,2026-02-21T04:02:22.320096,1.86232341,.00051495,54.1906,304.0566,33.6062,326.4889,0,U,43648,999,5001,0,-.34E-6,0
AEHF-4 (USA 288),2018-079A,2026-02-27T03:54:38.675232,1.00274556,.00639935,1.4236,354.2032,359.0496,154.8309,0,U,43651,999,2719,0,-.287E-5,0
HAIYANG-2B,2018-081A,2026-02-27T06:24:13.348224,13.79307323,.00008485,99.3342,68.6640,157.6569,202.4620,0,U,43655,999,36977,.36523991E-3,.331E-5,0
